[{"OBJECT_NAME":"STARLINK-5929","OBJECT_ID":"2023-037AX","EPOCH":"2026-03-09T21:22:57.659232","MEAN_MOTION":14.98334627,"ECCENTRICITY":0.00025567,"INCLINATION":69.9984,"RA_OF_ASC_NODE":263.9337,"ARG_OF_PERICENTER":270.8446,"MEAN_ANOMALY":89.2421,"EPHEMERIS_TYPE":0,"CLASSIFICATION_TYPE":"U","NORAD_CAT_ID":55959,"ELEMENT_SET_NO":999,"REV_AT_EPOCH":16450,"BSTAR":-7.0636574e-5,"MEAN_MOTION_DOT":-9.36e-6,"MEAN_MOTION_DDOT":0},{"OBJECT_NAME":"CZ-4B R\/B","OBJECT_ID":"2024-208C","EPOCH":"2026-03-09T16:49:23.143584","MEAN_MOTION":15.26980605,"ECCENTRICITY":0.01307988,"INCLINATION":97.9574,"RA_OF_ASC_NODE":113.1946,"ARG_OF_PERICENTER":150.913,"MEAN_ANOMALY":209.9477,"EPHEMERIS_TYPE":0,"CLASSIFICATION_TYPE":"U","NORAD_CAT_ID":61938,"ELEMENT_SET_NO":999,"REV_AT_EPOCH":7308,"BSTAR":0.00035146236,"MEAN_MOTION_DOT":0.000119,"MEAN_MOTION_DDOT":0}]
